company,name,street,postcode,city,country,capacity,energy_source,technology,additional_info,type,chp,commissioned,comment,source,eic_code,lat,lon
Soške elektrarne Nova Gorica (SENG),Ajba,,,,SI,0.25,Hydro,,,,,2008.0,,http://www.seng.si/hydro_power_plants/hydro_power_plants/small_hydroplants/,,,
Hidroelektrarne na Spodnji Savi (HESS),Arto-Blanca G1,,,,SI,13.04,Hydro,Run-of-river,,,,2009.0,,http://www.he-ss.si/eng/he-blanca-general-info.html,,45.99027,15.38183
Hidroelektrarne na Spodnji Savi (HESS),Arto-Blanca G2,,,,SI,13.04,Hydro,Run-of-river,,,,2009.0,,http://www.he-ss.si/eng/he-blanca-general-info.html,,45.99027,15.38183
Hidroelektrarne na Spodnji Savi (HESS),Arto-Blanca G3,,,,SI,13.04,Hydro,Run-of-river,,,,2009.0,,http://www.he-ss.si/eng/he-blanca-general-info.html,,45.99027,15.38183
Soške elektrarne Nova Gorica (SENG),Avče,,,,SI,185.0,Hydro,Pumped storage,,,,2009.0,,http://www.seng.si/hydro_power_plants/hydro_power_plants/big_hydroplants/,28W-G-0000000009,46.08412,13.66757
Soške elektrarne Nova Gorica (SENG),Bača,,,,SI,0.5,Hydro,,,,,1991.0,,http://www.seng.si/hydro_power_plants/hydro_power_plants/small_hydroplants/,,,
Hidroelektrarne na Spodnji Savi (HESS),Boštanj G1,,,,SI,10.84,Hydro,Run-of-river,,,,2006.0,,http://www.he-ss.si/eng/he-bostanj-general-info.html,,46.01704,15.28121
Hidroelektrarne na Spodnji Savi (HESS),Boštanj G2,,,,SI,10.84,Hydro,Run-of-river,,,,2006.0,,http://www.he-ss.si/eng/he-bostanj-general-info.html,,46.01704,15.28121
Hidroelektrarne na Spodnji Savi (HESS),Boštanj G3,,,,SI,10.84,Hydro,Run-of-river,,,,2006.0,,http://www.he-ss.si/eng/he-bostanj-general-info.html,,46.01704,15.28121
Termoelektrarna Brestanica (TEB),Brestanica GT1,Cesta prvih borcev 18,8280.0,Brestanica,SI,23.0,Natural gas,Gas turbine,,,,1975.0,will be replaced by GT 6 & 7,http://www.teb.si/en/production-units,28W-G-000000122W,45.99757,15.47853
Termoelektrarna Brestanica (TEB),Brestanica GT2,Cesta prvih borcev 19,8280.0,Brestanica,SI,23.0,Natural gas,Gas turbine,,,,1975.0,will be replaced by GT 6 & 7,http://www.teb.si/en/production-units,28W-G-000000122W,45.99757,15.47853
Termoelektrarna Brestanica (TEB),Brestanica GT3,Cesta prvih borcev 20,8280.0,Brestanica,SI,23.0,Natural gas,Gas turbine,,,,1975.0,will be replaced by GT 6 & 7,http://www.teb.si/en/production-units,28W-G-000000122W,45.99757,15.47853
Termoelektrarna Brestanica (TEB),Brestanica GT4,Cesta prvih borcev 21,8280.0,Brestanica,SI,114.0,Natural gas,Gas turbine,,,,2000.0,,http://www.teb.si/en/production-units,28W-G-000000122W,45.99757,15.47853
Termoelektrarna Brestanica (TEB),Brestanica GT5,Cesta prvih borcev 22,8280.0,Brestanica,SI,114.0,Natural gas,Gas turbine,,,,2000.0,,http://www.teb.si/en/production-units,28W-G-000000122W,45.99757,15.47853
Hidroelektrarne na Spodnji Savi (HESS),Brežice G1,,,,SI,15.1,Hydro,Run-of-river,,,,,,http://www.he-ss.si/eng/he-brezice-general-info.html,,45.89888,15.5882
Hidroelektrarne na Spodnji Savi (HESS),Brežice G2,,,,SI,15.1,Hydro,Run-of-river,,,,,,http://www.he-ss.si/eng/he-brezice-general-info.html,,45.89888,15.5882
Hidroelektrarne na Spodnji Savi (HESS),Brežice G3,,,,SI,15.1,Hydro,Run-of-river,,,,,,http://www.he-ss.si/eng/he-brezice-general-info.html,,45.89888,15.5882
Soške elektrarne Nova Gorica (SENG),Cerkno,,,,SI,0.436,Hydro,,,,,1984.0,,http://www.seng.si/hydro_power_plants/hydro_power_plants/small_hydroplants/,,,
Dravske elektrarne Maribor (DEM),Ceršak G1,,,,SI,0.325,Hydro,Run-of-river,,,,1955.0,,http://www.dem.si/en-gb/Power-plants-and-generation/General-data,,,
Dravske elektrarne Maribor (DEM),Ceršak G2,,,,SI,0.325,Hydro,Run-of-river,,,,1955.0,,http://www.dem.si/en-gb/Power-plants-and-generation/General-data,,,
Soške elektrarne Nova Gorica (SENG),Doblar 1 G1,,,,SI,10.0,Hydro,Run-of-river,,,,1939.0,,http://www.seng.si/hydro_power_plants/hydro_power_plants/big_hydroplants/,,46.11382,13.68811
Soške elektrarne Nova Gorica (SENG),Doblar 1 G2,,,,SI,10.0,Hydro,Run-of-river,,,,1939.0,,http://www.seng.si/hydro_power_plants/hydro_power_plants/big_hydroplants/,,46.11382,13.68811
Soške elektrarne Nova Gorica (SENG),Doblar 1 G3,,,,SI,10.0,Hydro,Run-of-river,,,,1939.0,,http://www.seng.si/hydro_power_plants/hydro_power_plants/big_hydroplants/,,46.11382,13.68811
Soške elektrarne Nova Gorica (SENG),Doblar 2,,,,SI,40.0,Hydro,Run-of-river,,,,2002.0,,http://www.seng.si/hydro_power_plants/hydro_power_plants/big_hydroplants/,,46.11382,13.68811
Dravske elektrarne Maribor (DEM),Dravograd G1,,,,SI,8.73,Hydro,Run-of-river,,,,1944.0,,http://www.dem.si/en-gb/Power-plants-and-generation/General-data,,46.58558,15.01881
Dravske elektrarne Maribor (DEM),Dravograd G2,,,,SI,8.73,Hydro,Run-of-river,,,,1944.0,,http://www.dem.si/en-gb/Power-plants-and-generation/General-data,,46.58558,15.01881
Dravske elektrarne Maribor (DEM),Dravograd G3,,,,SI,8.73,Hydro,Run-of-river,,,,1955.0,,http://www.dem.si/en-gb/Power-plants-and-generation/General-data,,46.58558,15.01881
Dravske elektrarne Maribor (DEM),Fala G1,,,,SI,19.3,Hydro,Run-of-river,,,,1918.0,,http://www.dem.si/en-gb/Power-plants-and-generation/General-data,,46.55874,15.44511
Dravske elektrarne Maribor (DEM),Fala G2,,,,SI,19.3,Hydro,Run-of-river,,,,1918.0,,http://www.dem.si/en-gb/Power-plants-and-generation/General-data,,46.55874,15.44511
Dravske elektrarne Maribor (DEM),Fala G3,,,,SI,19.3,Hydro,Run-of-river,,,,1918.0,,http://www.dem.si/en-gb/Power-plants-and-generation/General-data,,46.55874,15.44511
Dravske elektrarne Maribor (DEM),Formin G1,,,,SI,58.0,Hydro,Run-of-river,,,,1978.0,,http://www.dem.si/en-gb/Power-plants-and-generation/General-data,28W-G-000000091H,46.40251,16.03374
Dravske elektrarne Maribor (DEM),Formin G2,,,,SI,58.0,Hydro,Run-of-river,,,,1978.0,,http://www.dem.si/en-gb/Power-plants-and-generation/General-data,28W-G-000000091H,46.40251,16.03374
Soške elektrarne Nova Gorica (SENG),Gradišče,,,,SI,0.15,Hydro,,,,,1922.0,,http://www.seng.si/hydro_power_plants/hydro_power_plants/small_hydroplants/,,,
Soške elektrarne Nova Gorica (SENG),Hubelj,,,,SI,2.1,Hydro,,,,,1931.0,,http://www.seng.si/hydro_power_plants/hydro_power_plants/small_hydroplants/,,45.89431,13.90556
Soške elektrarne Nova Gorica (SENG),Jelenk,,,,SI,0.07,Hydro,,,,,1987.0,,http://www.seng.si/hydro_power_plants/hydro_power_plants/small_hydroplants/,,,
Soške elektrarne Nova Gorica (SENG),Klavžarica,,,,SI,0.303,Hydro,,,,,2006.0,,http://www.seng.si/hydro_power_plants/hydro_power_plants/small_hydroplants/,,,
Soške elektrarne Nova Gorica (SENG),Knežke Ravne 1,,,,SI,0.1,Hydro,,,,,1979.0,,http://www.seng.si/hydro_power_plants/hydro_power_plants/small_hydroplants/,,,
Soške elektrarne Nova Gorica (SENG),Knežke Ravne 2,,,,SI,0.81,Hydro,,,,,1993.0,,http://www.seng.si/hydro_power_plants/hydro_power_plants/small_hydroplants/,,,
Nuklearna Elektrarna Krško  (NEK),Krško ,Vrbina 12,8270.0,Krško ,SI,727.0,Nuclear,Steam turbine,,,,,net: 696 MW,http://www.nek.si/en/about_nuclear_technology/technical_data/,28W-G-000000119L,45.93833,15.51554
Hidroelektrarne na Spodnji Savi (HESS),Krško G1,,,,SI,13.04,Hydro,Run-of-river,,,,2013.0,,http://www.he-ss.si/eng/he-krsko-general-info.html,,45.97461,15.48091
Hidroelektrarne na Spodnji Savi (HESS),Krško G2,,,,SI,13.04,Hydro,Run-of-river,,,,2013.0,,http://www.he-ss.si/eng/he-krsko-general-info.html,,45.97461,15.48091
Hidroelektrarne na Spodnji Savi (HESS),Krško G3,,,,SI,13.04,Hydro,Run-of-river,,,,2013.0,,http://www.he-ss.si/eng/he-krsko-general-info.html,,45.97461,15.48091
ENERGETIKA LJUBLJANA,Ljubljana 1,Verovškova ulica 62,1000.0,Ljubljana,SI,42.0,Lignite,Steam turbine,,CHP,yes,1966.0,,"http://www.te-tol.si/index.php?sv_path=2455,2466",28W-G-000000082I,46.05811,14.54381
ENERGETIKA LJUBLJANA,Ljubljana 2,Verovškova ulica 62,1000.0,Ljubljana,SI,32.0,Lignite,Steam turbine,,CHP,yes,1967.0,,"http://www.te-tol.si/index.php?sv_path=2455,2466",28W-G-000000082I,46.05811,14.54381
ENERGETIKA LJUBLJANA,Ljubljana 3,Verovškova ulica 62,1000.0,Ljubljana,SI,50.0,Lignite,Steam turbine,,CHP,yes,1984.0,,"http://www.te-tol.si/index.php?sv_path=2455,2466",28W-G-000000082I,46.05811,14.54381
Soške elektrarne Nova Gorica (SENG),Log,,,,SI,1.6,Hydro,,,,,1931.0,,http://www.seng.si/hydro_power_plants/hydro_power_plants/small_hydroplants/,,46.41081,13.61339
Dravske elektrarne Maribor (DEM),Mariborski otok G1,,,,SI,20.0,Hydro,Run-of-river,,,,1948.0,,http://www.dem.si/en-gb/Power-plants-and-generation/General-data,,46.56804,15.60415
Dravske elektrarne Maribor (DEM),Mariborski otok G2,,,,SI,20.0,Hydro,Run-of-river,,,,1953.0,,http://www.dem.si/en-gb/Power-plants-and-generation/General-data,,46.56804,15.60415
Dravske elektrarne Maribor (DEM),Mariborski otok G3,,,,SI,20.0,Hydro,Run-of-river,,,,1960.0,,http://www.dem.si/en-gb/Power-plants-and-generation/General-data,,46.56804,15.60415
Dravske elektrarne Maribor (DEM),Markovci G1,,,,SI,0.3875,Hydro,Run-of-river,,,,,,http://www.dem.si/en-gb/Power-plants-and-generation/General-data,,46.38817,15.92648
Dravske elektrarne Maribor (DEM),Markovci G2,,,,SI,0.3875,Hydro,Run-of-river,,,,,,http://www.dem.si/en-gb/Power-plants-and-generation/General-data,,46.38817,15.92648
Soške elektrarne Nova Gorica (SENG),Marof,,,,SI,0.44,Hydro,,,,,1932.0,,http://www.seng.si/hydro_power_plants/hydro_power_plants/small_hydroplants/,,,
Savske elektrarne Ljubljana (SEL),Mavcice,,,,SI,38.0,Hydro,Reservoir,,,,1986.0,,http://www.sel.si/HE-mavcice,,46.18387,14.40805
Savske elektrarne Ljubljana (SEL),Medvode,,,,SI,25.0,Hydro,Reservoir,,,,1953.0,,http://www.sel.si/HE-medvode,,46.14578,14.41438
Dravske elektrarne Maribor (DEM),Melje G1,,,,SI,1.13,Hydro,Run-of-river,,,,,,http://www.dem.si/en-gb/Power-plants-and-generation/General-data,,46.56087,15.67309
Dravske elektrarne Maribor (DEM),Melje G1,,,,SI,1.13,Hydro,Run-of-river,,,,,,http://www.dem.si/en-gb/Power-plants-and-generation/General-data,,46.56087,15.67309
Soške elektrarne Nova Gorica (SENG),Mesto,,,,SI,0.2,Hydro,,,,,1909.0,,http://www.seng.si/hydro_power_plants/hydro_power_plants/small_hydroplants/,,,
Hidroelektrarne na Spodnji Savi (HESS),Mokrice G1,,,,SI,9.45,Hydro,Run-of-river,,,,,Under construction,http://www.he-ss.si/eng/he-mokrice-specifications.html,,45.87102,15.67196
Hidroelektrarne na Spodnji Savi (HESS),Mokrice G2,,,,SI,9.45,Hydro,Run-of-river,,,,,Under construction,http://www.he-ss.si/eng/he-mokrice-specifications.html,,45.87102,15.67196
Hidroelektrarne na Spodnji Savi (HESS),Mokrice G3,,,,SI,9.45,Hydro,Run-of-river,,,,,Under construction,http://www.he-ss.si/eng/he-mokrice-specifications.html,,45.87102,15.67196
Savske elektrarne Ljubljana (SEL),Moste,,,,SI,21.0,Hydro,Reservoir,,,,1977.0,,http://www.sel.si/HE-moste,,46.41016,14.12601
Soške elektrarne Nova Gorica (SENG),Možnica,,,,SI,0.53,Hydro,,,,,1911.0,,http://www.seng.si/hydro_power_plants/hydro_power_plants/small_hydroplants/,,,
Soške elektrarne Nova Gorica (SENG),Mrzla Rupa,,,,SI,0.648,Hydro,,,,,1989.0,,http://www.seng.si/hydro_power_plants/hydro_power_plants/small_hydroplants/,,,
Dravske elektrarne Maribor (DEM),Ožbalt G1,,,,SI,24.4,Hydro,Run-of-river,,,,1960.0,,http://www.dem.si/en-gb/Power-plants-and-generation/General-data,,46.57729,15.40599
Dravske elektrarne Maribor (DEM),Ožbalt G2,,,,SI,24.4,Hydro,Run-of-river,,,,1960.0,,http://www.dem.si/en-gb/Power-plants-and-generation/General-data,,46.57729,15.40599
Dravske elektrarne Maribor (DEM),Ožbalt G3,,,,SI,24.4,Hydro,Run-of-river,,,,1960.0,,http://www.dem.si/en-gb/Power-plants-and-generation/General-data,,46.57729,15.40599
Soške elektrarne Nova Gorica (SENG),Pečnik,,,,SI,0.095,Hydro,,,,,1983.0,,http://www.seng.si/hydro_power_plants/hydro_power_plants/small_hydroplants/,,,
Soške elektrarne Nova Gorica (SENG),Planina,,,,SI,0.136,Hydro,,,,,1989.0,,http://www.seng.si/hydro_power_plants/hydro_power_plants/small_hydroplants/,,,
Soške elektrarne Nova Gorica (SENG),Plave 1 G1,,,,SI,5.0,Hydro,Run-of-river,,,,1940.0,,http://www.seng.si/hydro_power_plants/hydro_power_plants/big_hydroplants/,,46.09935,13.64256
Soške elektrarne Nova Gorica (SENG),Plave 1 G2,,,,SI,5.0,Hydro,Run-of-river,,,,1940.0,,http://www.seng.si/hydro_power_plants/hydro_power_plants/big_hydroplants/,,46.09935,13.64256
Soške elektrarne Nova Gorica (SENG),Plave 1 G3,,,,SI,5.0,Hydro,Run-of-river,,,,1940.0,,http://www.seng.si/hydro_power_plants/hydro_power_plants/big_hydroplants/,,46.09935,13.64256
Soške elektrarne Nova Gorica (SENG),Plave 2,,,,SI,20.0,Hydro,Run-of-river,,,,2002.0,,http://www.seng.si/hydro_power_plants/hydro_power_plants/big_hydroplants/,,46.05256,13.60608
Soške elektrarne Nova Gorica (SENG),Plužna,,,,SI,1.72,Hydro,,,,,1931.0,,http://www.seng.si/hydro_power_plants/hydro_power_plants/small_hydroplants/,,46.32449,13.51293
Soške elektrarne Nova Gorica (SENG),Podmelec,,,,SI,0.425,Hydro,,,,,1931.0,,http://www.seng.si/hydro_power_plants/hydro_power_plants/small_hydroplants/,,,
Dravske elektrarne Maribor (DEM),Ruše G1,,,,SI,0.053,Hydro,Run-of-river,,,,2012.0,,http://www.dem.si/en-gb/Power-plants-and-generation/General-data,,,
Dravske elektrarne Maribor (DEM),Ruše G2,,,,SI,0.053,Hydro,Run-of-river,,,,2012.0,,http://www.dem.si/en-gb/Power-plants-and-generation/General-data,,,
Soške elektrarne Nova Gorica (SENG),Solkan G1,,,,SI,10.66,Hydro,Run-of-river,,,,1984.0,,http://www.seng.si/hydro_power_plants/hydro_power_plants/big_hydroplants/,,45.98441,13.65506
Soške elektrarne Nova Gorica (SENG),Solkan G2,,,,SI,10.66,Hydro,Run-of-river,,,,1984.0,,http://www.seng.si/hydro_power_plants/hydro_power_plants/big_hydroplants/,,45.98441,13.65506
Soške elektrarne Nova Gorica (SENG),Solkan G3,,,,SI,10.66,Hydro,Run-of-river,,,,1984.0,,http://www.seng.si/hydro_power_plants/hydro_power_plants/big_hydroplants/,,45.98441,13.65506
Termoelektrarna Šoštanj (TEŠ ),Šoštanj 3,Cesta Lole Ribarja 18,3325.0,Šoštanj,SI,75.0,Lignite,Steam turbine,,CHP,yes,,will be replaced by Šoštanj 6,http://www.hse.si/en/group-hse/companies-in-slovenia/termoelektrarna-sostanj,28W-G-000000080M,46.37305,15.05384
Termoelektrarna Šoštanj (TEŠ ),Šoštanj 4,Cesta Lole Ribarja 18,3325.0,Šoštanj,SI,275.0,Lignite,Steam turbine,,CHP,yes,,will be replaced by Šoštanj 6,http://www.hse.si/en/group-hse/companies-in-slovenia/termoelektrarna-sostanj,28W-G-000000080M,46.37305,15.05384
Termoelektrarna Šoštanj (TEŠ ),Šoštanj 5,Cesta Lole Ribarja 18,3325.0,Šoštanj,SI,345.0,Lignite,Steam turbine,,CHP,yes,,will be replaced by Šoštanj 6,http://www.hse.si/en/group-hse/companies-in-slovenia/termoelektrarna-sostanj,28W-G-000000080M,46.37305,15.05384
Termoelektrarna Šoštanj (TEŠ ),Šoštanj GU1,Cesta Lole Ribarja 18,3325.0,Šoštanj,SI,42.0,Natural gas,,,CHP,yes,,,http://www.hse.si/en/group-hse/companies-in-slovenia/termoelektrarna-sostanj,28W-G-000000080M,46.37305,15.05384
Termoelektrarna Šoštanj (TEŠ ),Šoštanj GU2,Cesta Lole Ribarja 18,3325.0,Šoštanj,SI,42.0,Natural gas,,,CHP,yes,,,http://www.hse.si/en/group-hse/companies-in-slovenia/termoelektrarna-sostanj,28W-G-000000080M,46.37305,15.05384
Soške elektrarne Nova Gorica (SENG),Tolmin,,,,SI,0.109,Hydro,,,,,1995.0,,http://www.seng.si/hydro_power_plants/hydro_power_plants/small_hydroplants/,,,
Termoelektrarna Trbovlje (TET),Trbovlje 3,Ob železnici 27,1420.0,Trbovlje,SI,125.0,Lignite,Steam turbine,,,,,,http://www.hse.si/en/group-hse/companies-in-slovenia/termoelektrarna-trbovlje,28W-G-0000000797,46.12678,15.05495
Termoelektrarna Trbovlje (TET),Trbovlje GU 1,Ob železnici 27,1420.0,Trbovlje,SI,34.0,Natural gas,Gas turbine,,,,,,http://www.hse.si/en/group-hse/companies-in-slovenia/termoelektrarna-trbovlje,,46.12678,15.05495
Termoelektrarna Trbovlje (TET),Trbovlje GU 2,Ob železnici 27,1420.0,Trbovlje,SI,34.0,Natural gas,Gas turbine,,,,,,http://www.hse.si/en/group-hse/companies-in-slovenia/termoelektrarna-trbovlje,,46.12678,15.05495
Soške elektrarne Nova Gorica (SENG),Trebuša,,,,SI,0.76,Hydro,,,,,1985.0,,http://www.seng.si/hydro_power_plants/hydro_power_plants/small_hydroplants/,,,
Savske elektrarne Ljubljana (SEL),Vrhovo,,,,SI,34.2,Hydro,Reservoir,,,,1989.0,,http://www.sel.si/HE-vrhovo,,46.04415,15.22365
Dravske elektrarne Maribor (DEM),Vuhred G1,,,,SI,24.1,Hydro,Run-of-river,,,,1956.0,,http://www.dem.si/en-gb/Power-plants-and-generation/General-data,,46.58659,15.27548
Dravske elektrarne Maribor (DEM),Vuhred G2,,,,SI,24.1,Hydro,Run-of-river,,,,1956.0,,http://www.dem.si/en-gb/Power-plants-and-generation/General-data,,46.58659,15.27548
Dravske elektrarne Maribor (DEM),Vuhred G3,,,,SI,24.1,Hydro,Run-of-river,,,,1958.0,,http://www.dem.si/en-gb/Power-plants-and-generation/General-data,,46.58659,15.27548
Dravske elektrarne Maribor (DEM),Vuzenica G1,,,,SI,18.53,Hydro,Run-of-river,,,,1957.0,,http://www.dem.si/en-gb/Power-plants-and-generation/General-data,,46.59257,15.15301
Dravske elektrarne Maribor (DEM),Vuzenica G2,,,,SI,18.53,Hydro,Run-of-river,,,,1957.0,,http://www.dem.si/en-gb/Power-plants-and-generation/General-data,,46.59257,15.15301
Dravske elektrarne Maribor (DEM),Vuzenica G3,,,,SI,18.53,Hydro,Run-of-river,,,,1957.0,,http://www.dem.si/en-gb/Power-plants-and-generation/General-data,,46.59257,15.15301
Soške elektrarne Nova Gorica (SENG),Zadlaščica,,,,SI,8.0,Hydro,,,,,1989.0,,http://www.seng.si/hydro_power_plants/hydro_power_plants/small_hydroplants/,,46.21253,13.76141
Dravske elektrarne Maribor (DEM),Zlatoličje G1,,,,SI,63.0,Hydro,Run-of-river,,,,1969.0,,http://www.dem.si/en-gb/Power-plants-and-generation/General-data,28W-G-000000090J,46.44793,15.78693
Dravske elektrarne Maribor (DEM),Zlatoličje G2,,,,SI,63.0,Hydro,Run-of-river,,,,1969.0,,http://www.dem.si/en-gb/Power-plants-and-generation/General-data,28W-G-000000090J,46.44793,15.78693
