company,name,street,postcode,city,country,capacity,energy_source,technology,additional_info,type,chp,commissioned,comment,source,eic_code,lat,lon
,Bešeňová G1,,,,SK,2.32,Hydro,,,,,1976.0,,SEAS,,49.09691,19.44735
,Bešeňová G2,,,,SK,2.32,Hydro,,,,,1976.0,,SEAS,,49.09691,19.44735
,Bohunice G1,,,,SK,500.0,Nuclear,Steam turbine,,,,1985.0,,SEAS,24WV--EBO------8,48.4914,17.67734
,Bohunice G2,,,,SK,500.0,Nuclear,Steam turbine,,,,1985.0,,SEAS,24WV--EBO------8,48.4914,17.67734
,Čierny Váh G1,,,,SK,122.4,Hydro,Pumped storage,,,,1982.0,,SEAS,24WV--HCV------O,49.0091,19.91203
,Čierny Váh G2,,,,SK,122.4,Hydro,Pumped storage,,,,1982.0,,SEAS,24WV--HCV------O,49.0091,19.91203
,Čierny Váh G3,,,,SK,122.4,Hydro,Pumped storage,,,,1982.0,,SEAS,24WV--HCV------O,49.0091,19.91203
,Čierny Váh G4,,,,SK,122.4,Hydro,Pumped storage,,,,1982.0,,SEAS,24WV--HCV------O,49.0091,19.91203
,Čierny Váh G5,,,,SK,122.4,Hydro,Pumped storage,,,,1982.0,,SEAS,24WV--HCV------O,49.0091,19.91203
,Čierny Váh G6,,,,SK,122.4,Hydro,Pumped storage,,,,1982.0,,SEAS,24WV--HCV------O,49.0091,19.91203
,Čierny Váh prietok,,,,SK,0.76,Hydro,,,,,1982.0,,SEAS,,,
,Dobrohošť,,,,SK,1.87,Hydro,,,,,,,VVB,,47.9917,17.3522
,Dobšiná 2,,,,SK,2.0,Hydro,Run-of-river,,,,1994.0,,SEAS,,48.80591,20.38578
,Dobšiná 3,,,,SK,0.32,Hydro,,,,,2014.0,,SEAS,,48.80591,20.38578
,Dobšiná G1,,,,SK,12.0,Hydro,Pumped storage,,,,1954.0,,SEAS,,48.80591,20.38578
,Dobšiná G2,,,,SK,12.0,Hydro,Pumped storage,,,,1954.0,,SEAS,,48.80591,20.38578
,Domaša G1,,,,SK,6.2,Hydro,,,,,1966.0,,SEAS,,49.00068,21.69717
,Domaša G2,,,,SK,6.2,Hydro,,,,,1966.0,,SEAS,,49.00068,21.69717
,Dubnica G1,,,,SK,8.25,Hydro,Run-of-river,,,,1949.0,,SEAS,,48.96319,18.1451
,Dubnica G2,,,,SK,8.25,Hydro,Run-of-river,,,,1949.0,,SEAS,,48.96319,18.1451
,Gabčíkovo ,,,,SK,720.0,Hydro,Reservoir,,,,1992.0,,VVB,24WV--HGA------8,47.88004,17.53841
,Horná Streda G1,,,,SK,12.75,Hydro,Run-of-river,,,,1955.0,,SEAS,,48.66046,17.85503
,Horná Streda G2,,,,SK,12.75,Hydro,Run-of-river,,,,1955.0,,SEAS,,48.66046,17.85503
,Hričov G1,,,,SK,10.5,Hydro,Run-of-river,,,,1964.0,,SEAS,,49.25737,18.68102
,Hričov G2,,,,SK,10.5,Hydro,Run-of-river,,,,1964.0,,SEAS,,49.25737,18.68102
,Hričov G3,,,,SK,10.5,Hydro,Run-of-river,,,,1964.0,,SEAS,,49.25737,18.68102
,Ilava G1,,,,SK,7.5,Hydro,Run-of-river,,,,1946.0,,SEAS,,49.00567,18.23494
,Ilava G2,,,,SK,7.5,Hydro,Run-of-river,,,,1946.0,,SEAS,,49.00567,18.23494
,Kostolná G1,,,,SK,12.75,Hydro,Run-of-river,,,,1953.0,,SEAS,,48.86096,17.96874
,Kostolná G2,,,,SK,12.75,Hydro,Run-of-river,,,,1953.0,,SEAS,,48.86096,17.96874
,Kráľová G1,,,,SK,22.53,Hydro,Run-of-river,,,,1985.0,,SEAS,,48.19048,17.8285
,Kráľová G2,,,,SK,22.53,Hydro,Run-of-river,,,,1985.0,,SEAS,,48.19048,17.8285
,Krompachy,,,,SK,0.33,Hydro,,,,,1932.0,,SEAS,,,
,Krpeľany G1,,,,SK,8.25,Hydro,Run-of-river,,,,1957.0,,SEAS,,49.12796,19.0955
,Krpeľany G2,,,,SK,8.25,Hydro,Run-of-river,,,,1957.0,,SEAS,,49.12796,19.0955
,Krpeľany G3,,,,SK,8.25,Hydro,Run-of-river,,,,1957.0,,SEAS,,49.12796,19.0955
,Ladce G1,,,,SK,9.45,Hydro,Run-of-river,,,,1936.0,,SEAS,,49.04976,18.29794
,Ladce G2,,,,SK,9.45,Hydro,Run-of-river,,,,1936.0,,SEAS,,49.04976,18.29794
,Lipovec G1,,,,SK,12.8,Hydro,Run-of-river,,,,1961.0,,SEAS,,49.13197,18.9114
,Lipovec G2,,,,SK,12.8,Hydro,Run-of-river,,,,1961.0,,SEAS,,49.13197,18.9114
,Lipovec G3,,,,SK,12.8,Hydro,Run-of-river,,,,1961.0,,SEAS,,49.13197,18.9114
,Liptovská Mara G1,,,,SK,49.0,Hydro,Pumped storage,,,,1976.0,,SEAS,24WV--HLM------F,49.09823,19.48484
,Liptovská Mara G2,,,,SK,49.0,Hydro,Pumped storage,,,,1976.0,,SEAS,24WV--HLM------F,49.09823,19.48484
,Liptovská Mara G3,,,,SK,50.0,Hydro,Pumped storage,,,,1976.0,,SEAS,24WV--HLM------F,49.09823,19.48484
,Liptovská Mara G4,,,,SK,50.0,Hydro,Pumped storage,,,,1976.0,,SEAS,24WV--HLM------F,49.09823,19.48484
,Madunice G1,,,,SK,14.4,Hydro,Run-of-river,,,,1961.0,,SEAS,,48.48843,17.79408
,Madunice G2,,,,SK,14.4,Hydro,Run-of-river,,,,1961.0,,SEAS,,48.48843,17.79408
,Madunice G3,,,,SK,14.4,Hydro,Run-of-river,,,,1961.0,,SEAS,,48.48843,17.79408
,Malé Gabčíkovo - S VII HPP,,,,SK,1.04,Hydro,Run-of-river,,,,1994.0,,SEAS,,,
,Mikšová 1 G1,,,,SK,31.2,Hydro,Run-of-river,,,,1965.0,,SEAS,,49.19271,18.50829
,Mikšová 1 G2,,,,SK,31.2,Hydro,Run-of-river,,,,1965.0,,SEAS,,49.19271,18.50829
,Mikšová 1 G3,,,,SK,31.2,Hydro,Run-of-river,,,,1965.0,,SEAS,,49.19271,18.50829
,Mochovce,,,,SK,0.95,Solar,Photovoltaics ground,,,,,,SEAS,,,
,Mochovce G1,,,,SK,470.0,Nuclear,Steam turbine,,,,2000.0,,SEAS,24WV--EMO------K,48.26409,18.45326
,Mochovce G2,,,,SK,470.0,Nuclear,Steam turbine,,,,2000.0,,SEAS,24WV--EMO------K,48.26409,18.45326
,Mošoň ,,,,SK,1.22,Hydro,Run-of-river,,,,1994.0,,SEAS,,,
,Nosice G1,,,,SK,22.5,Hydro,Run-of-river,,,,1958.0,,SEAS,,49.12745,18.36424
,Nosice G2,,,,SK,22.5,Hydro,Run-of-river,,,,1958.0,,SEAS,,49.12745,18.36424
,Nosice G3,,,,SK,22.5,Hydro,Run-of-river,,,,1958.0,,SEAS,,49.12745,18.36424
,Nováky A,,,,SK,46.0,Lignite,Steam turbine,,,,2004.0,,SEAS,,,
,Nováky B,,,,SK,440.0,Lignite,Steam turbine,,,,1976.0,,SEAS,24WV--ENO------B,,
,Nové Mesto n/V G1,,,,SK,12.75,Hydro,Run-of-river,,,,1954.0,,SEAS,,48.77245,17.85146
,Nové Mesto n/V G2,,,,SK,12.75,Hydro,Run-of-river,,,,1954.0,,SEAS,,48.77245,17.85146
,Orava G1,,,,SK,10.87,Hydro,Run-of-river,,,,1954.0,,SEAS,,49.37534,19.55849
,Orava G2,,,,SK,10.88,Hydro,Run-of-river,,,,1954.0,,SEAS,,49.37534,19.55849
,Považská Bystrica G1,,,,SK,18.4,Hydro,Run-of-river,,,,1964.0,,SEAS,,49.13312,18.45366
,Považská Bystrica G2,,,,SK,18.4,Hydro,Run-of-river,,,,1964.0,,SEAS,,49.13312,18.45366
,Považská Bystrica G3,,,,SK,18.4,Hydro,Run-of-river,,,,1964.0,,SEAS,,49.13312,18.45366
,Rakovec G1,,,,SK,0.25,Hydro,,,,,1913.0,,SEAS,,,
,Rakovec G2,,,,SK,0.25,Hydro,,,,,1913.0,,SEAS,,,
,Ružín 2,,,,SK,1.8,Hydro,Run-of-river,,,,1974.0,,SEAS,,48.86048,21.09436
,Ružín G1,,,,SK,30.0,Hydro,Pumped storage,,,,1972.0,,SEAS,,48.86048,21.09436
,Ružín G2,,,,SK,30.0,Hydro,Pumped storage,,,,1972.0,,SEAS,,48.86048,21.09436
,Sučany G1,,,,SK,12.8,Hydro,Run-of-river,,,,1958.0,,SEAS,,49.10656,18.99204
,Sučany G2,,,,SK,12.8,Hydro,Run-of-river,,,,1958.0,,SEAS,,49.10656,18.99204
,Sučany G3,,,,SK,12.8,Hydro,Run-of-river,,,,1958.0,,SEAS,,49.10656,18.99204
,Švedlár,,,,SK,0.09,Hydro,,,,,1924.0,,SEAS,,,
,Trenčín G1,,,,SK,8.05,Hydro,Run-of-river,,,,1956.0,,SEAS,,48.90208,18.05579
,Trenčín G2,,,,SK,8.05,Hydro,Run-of-river,,,,1956.0,,SEAS,,48.90208,18.05579
,Tvrdošín G1,,,,SK,2.8,Hydro,Run-of-river,,,,1979.0,,SEAS,,49.33669,19.54867
,Tvrdošín G2,,,,SK,2.8,Hydro,Run-of-river,,,,1979.0,,SEAS,,49.33669,19.54867
,Tvrdošín G3,,,,SK,0.5,Hydro,Run-of-river,,,,1979.0,,SEAS,,49.33669,19.54867
,V. Kozmálovce G1,,,,SK,2.4,Hydro,Run-of-river,,,,1988.0,,SEAS,,48.26891,18.52822
,V. Kozmálovce G2,,,,SK,2.4,Hydro,Run-of-river,,,,1988.0,,SEAS,,48.26891,18.52822
,V. Kozmálovce G3,,,,SK,0.52,Hydro,Run-of-river,,,,1988.0,,SEAS,,48.26891,18.52822
,Vojany,,,,SK,440.0,Hard coal,Steam turbine,,,,2001.0,,SEAS,24WV--EVO------D,48.55439,21.97402
,Vojany,,,,SK,0.95,Solar,Photovoltaics ground,,,,,,SEAS,,,
,Žilina,,,,SK,72.0,Hydro,Reservoir,,,,1998.0,,VVB,,49.21553,18.77683
